NORAD_CAT_ID,OBJECT_NAME,OBJECT_TYPE,EPOCH,MEAN_MOTION,ECCENTRICITY,INCLINATION,RA_OF_ASC_NODE,ARG_OF_PERICENTER,MEAN_ANOMALY,BSTAR,MEAN_MOTION_DOT,MEAN_MOTION_DDOT,TLE_LINE0,TLE_LINE1,TLE_LINE2,SEMIMAJOR_AXIS,PERIOD,APOGEE,PERIGEE,DECAYED
51974.0,STARLINK-3672,PAYLOAD,2024-04-19 12:54:30,15.06400591,0.0001313,53.0544,244.6075,72.6526,287.4606,0.00021731,2.957e-05,0.0,0 STARLINK-3672,1 51974U 22025U   24110.53785797  .00002957  00000-0  21731-3 0  9996,2 51974  53.0544 244.6075 0001313  72.6526 287.4606 15.06400591118131,6925.347,95.592,548.121,546.302,0.0
51974.0,STARLINK-3672,PAYLOAD,2024-04-19 14:30:03,15.06403512,0.0001468,53.0543,244.3053,74.4165,285.6986,0.000213,2.893e-05,0.0,0 STARLINK-3672,1 51974U 22025U   24110.60420189  .00002893  00000-0  21300-3 0  9996,2 51974  53.0543 244.3053 0001468  74.4165 285.6986 15.06403512117050,6925.338,95.592,548.219,546.186,0.0
51974.0,STARLINK-3672,PAYLOAD,2024-04-20 12:47:37,15.06388798,0.0001734,53.0552,240.1433,119.349,240.7672,-2.9406e-05,-7.19e-06,0.0,0 STARLINK-3672,1 51974U 22025U   24111.53307038 -.00000719  00000-0 -29406-4 0  9999,2 51974  53.0552 240.1433 0001734 119.3490 240.7672 15.06388798118280,6925.383,95.593,548.449,546.047,0.0
51974.0,STARLINK-3672,PAYLOAD,2024-04-20 14:23:09,15.06390057,0.0001665,53.055,239.8446,81.4376,278.6801,1.4731e-05,-6.2e-07,0.0,0 STARLINK-3672,1 51974U 22025U   24111.59941959 -.00000062  00000-0  14731-4 0  9996,2 51974  53.0550 239.8446 0001665  81.4376 278.6801 15.06390057117208,6925.379,95.593,548.397,546.091,0.0
51974.0,STARLINK-3672,PAYLOAD,2024-04-20 17:34:14,15.06398302,0.00017,53.0549,239.2433,103.3971,256.7208,0.00015025,1.957e-05,0.0,0 STARLINK-3672,1 51974U 22025U   24111.73210664  .00001957  00000-0  15025-3 0  9993,2 51974  53.0549 239.2433 0001700 103.3971 256.7208 15.06398302118313,6925.354,95.592,548.396,546.041,0.0
51974.0,STARLINK-3672,PAYLOAD,2024-04-21 14:16:14,15.06401293,0.0001885,53.0544,235.3749,90.414,269.7065,0.00022187,3.025e-05,0.0,0 STARLINK-3672,1 51974U 22025U   24112.59461595  .00003025  00000-0  22187-3 0  9994,2 51974  53.0544 235.3749 0001885  90.4140 269.7065 15.06401293117355,6925.345,95.592,548.515,545.904,0.0
51974.0,STARLINK-3672,PAYLOAD,2024-04-21 17:27:19,15.06419004,0.0001487,53.0546,234.7731,85.4039,274.7119,0.00061179,8.847e-05,0.0,0 STARLINK-3672,1 51974U 22025U   24112.72730353  .00008847  00000-0  61179-3 0  9991,2 51974  53.0546 234.7731 0001487  85.4039 274.7119 15.06419004118468,6925.29,95.591,548.185,546.126,0.0
51974.0,STARLINK-3672,PAYLOAD,2024-04-22 17:20:24,15.06426582,0.0001782,53.0546,230.3102,117.9337,242.1833,0.00056178,8.102e-05,0.0,0 STARLINK-3672,1 51974U 22025U   24113.72250092  .00008102  00000-0  56178-3 0  9996,2 51974  53.0546 230.3102 0001782 117.9337 242.1833 15.06426582118610,6925.267,95.59,548.366,545.898,0.0
51974.0,STARLINK-3672,PAYLOAD,2024-04-23 12:26:53,15.06398127,0.0001804,53.0551,226.7329,112.3035,247.8145,-0.00021808,-3.528e-05,0.0,0 STARLINK-3672,1 51974U 22025U   24114.51867280 -.00003528  00000-0 -21808-3 0  9998,2 51974  53.0551 226.7329 0001804 112.3035 247.8145 15.06398127118739,6925.354,95.592,548.469,545.97,0.0
51974.0,STARLINK-3672,PAYLOAD,2024-04-23 14:02:26,15.0639521,0.0001728,53.0548,226.4383,102.4096,257.7086,-0.00010769,-1.885e-05,0.0,0 STARLINK-3672,1 51974U 22025U   24114.58502395 -.00001885  00000-0 -10769-3 0  9996,2 51974  53.0548 226.4383 0001728 102.4096 257.7086 15.06395210117658,6925.363,95.592,548.425,546.032,0.0
51974.0,STARLINK-3672,PAYLOAD,2024-04-24 13:55:31,15.06399095,0.000159,53.0539,221.9694,98.3184,261.7986,-5.4615e-05,-1.095e-05,0.0,0 STARLINK-3672,1 51974U 22025U   24115.58022886 -.00001095  00000-0 -54615-4 0  9991,2 51974  53.0539 221.9694 0001590  98.3184 261.7986 15.06399095117807,6925.351,95.592,548.317,546.115,0.0
51974.0,STARLINK-3672,PAYLOAD,2024-04-25 12:13:05,15.06405871,0.0001473,53.0549,217.8048,107.526,252.589,0.00047912,6.863e-05,0.0,0 STARLINK-3672,1 51974U 22025U   24116.50908979  .00006863  00000-0  47912-3 0  9997,2 51974  53.0549 217.8048 0001473 107.5260 252.5890 15.06405871117940,6925.331,95.592,548.216,546.175,0.0
51974.0,STARLINK-3672,PAYLOAD,2024-04-26 13:41:42,15.06411405,0.000152,53.0543,213.0378,95.933,264.1832,0.00025963,3.589e-05,0.0,0 STARLINK-3672,1 51974U 22025U   24117.57063429  .00003589  00000-0  25963-3 0  9991,2 51974  53.0543 213.0378 0001520  95.9330 264.1832 15.06411405119193,6925.314,95.591,548.231,546.126,0.0
51974.0,STARLINK-3672,PAYLOAD,2024-04-26 15:17:14,15.06416065,0.0001651,53.0552,212.7391,103.6655,256.4517,0.00036201,5.117e-05,0.0,0 STARLINK-3672,1 51974U 22025U   24117.63697777  .00005117  00000-0  36201-3 0  9993,2 51974  53.0552 212.7391 0001651 103.6655 256.4517 15.06416065118118,6925.299,95.591,548.308,546.021,0.0
51974.0,STARLINK-3672,PAYLOAD,2024-04-27 13:34:46,15.0642645,0.0001444,53.0535,208.5695,117.5432,242.5704,0.00040361,5.74e-05,0.0,0 STARLINK-3672,1 51974U 22025U   24118.56582115  .00005740  00000-0  40361-3 0  9999,2 51974  53.0535 208.5695 0001444 117.5432 242.5704 15.06426450118254,6925.267,95.59,548.133,546.132,0.0
51974.0,STARLINK-3672,PAYLOAD,2024-04-27 15:10:19,15.06424855,0.0001477,53.0533,208.271,96.9841,263.1316,0.00037539,5.318e-05,0.0,0 STARLINK-3672,1 51974U 22025U   24118.63216856  .00005318  00000-0  37539-3 0  9997,2 51974  53.0533 208.2710 0001477  96.9841 263.1316 15.06424855119354,6925.272,95.591,548.16,546.115,0.0
51974.0,STARLINK-3672,PAYLOAD,2024-04-27 23:08:03,15.06389546,0.0002458,53.0553,206.7827,82.716,277.4108,-0.00013865,-2.346e-05,0.0,0 STARLINK-3672,1 51974U 22025U   24118.96392395 -.00002346  00000-0 -13865-3 0  9992,2 51974  53.0553 206.7827 0002458  82.7160 277.4108 15.06389546119405,6925.381,95.593,548.948,545.543,0.0
51974.0,STARLINK-3672,PAYLOAD,2024-04-28 11:52:22,15.06373757,0.000121,53.0532,204.3985,85.7069,274.4058,-0.0005072,-7.823e-05,0.0,0 STARLINK-3672,1 51974U 22025U   24119.49470215 -.00007823  00000-0 -50720-3 0  9995,2 51974  53.0532 204.3985 0001210  85.7069 274.4058 15.06373757119483,6925.429,95.594,548.132,546.456,0.0
51974.0,STARLINK-3672,PAYLOAD,2024-04-29 05:23:18,15.0639392,0.0001478,53.0536,201.1202,85.2255,274.8902,0.00021388,2.905e-05,0.0,0 STARLINK-3672,1 51974U 22025U   24120.22451690  .00002905  00000-0  21388-3 0  9996,2 51974  53.0536 201.1202 0001478  85.2255 274.8902 15.06393920119590,6925.367,95.593,548.256,546.209,0.0
51974.0,STARLINK-3672,PAYLOAD,2024-04-29 11:45:27,15.06408053,0.0001634,53.0525,199.9307,78.5614,281.5559,0.00071409,0.00010373,0.0,0 STARLINK-3672,1 51974U 22025U   24120.48990285  .00010373  00000-0  71409-3 0  9999,2 51974  53.0525 199.9307 0001634  78.5614 281.5559 15.06408053118547,6925.324,95.592,548.32,546.057,0.0
51974.0,STARLINK-3672,PAYLOAD,2024-04-30 05:16:23,15.06411303,0.0001551,53.0504,196.6553,71.0361,289.0795,0.00026854,3.722e-05,0.0,0 STARLINK-3672,1 51974U 22025U   24121.21971533  .00003722  00000-0  26854-3 0  9990,2 51974  53.0504 196.6553 0001551  71.0361 289.0795 15.06411303119746,6925.314,95.591,548.253,546.105,0.0
51974.0,STARLINK-3672,PAYLOAD,2024-04-30 11:38:32,15.06417391,0.0001558,53.0518,195.4619,77.237,282.8793,0.00053052,7.633e-05,0.0,0 STARLINK-3672,1 51974U 22025U   24121.48509976  .00007633  00000-0  53052-3 0  9992,2 51974  53.0518 195.4619 0001558  77.2370 282.8793 15.06417391118691,6925.295,95.591,548.239,546.081,0.0
51974.0,STARLINK-3672,PAYLOAD,2024-05-01 11:31:37,15.0640776,0.000157,53.052,190.9945,79.1778,280.9388,0.00043153,6.153e-05,0.0,0 STARLINK-3672,1 51974U 22025U   24122.48029942  .00006153  00000-0  43153-3 0  9990,2 51974  53.0520 190.9945 0001570  79.1778 280.9388 15.06407760119939,6925.325,95.592,548.277,546.102,0.0
51974.0,STARLINK-3672,PAYLOAD,2024-05-01 21:04:52,15.0640191,0.0001391,53.0503,189.2064,73.083,287.0312,3.9092e-05,3.01e-06,0.0,0 STARLINK-3672,1 51974U 22025U   24122.87837984  .00000301  00000-0  39092-4 0  9993,2 51974  53.0503 189.2064 0001391  73.0830 287.0312 15.06401910118908,6925.343,95.592,548.171,546.244,0.0
51974.0,STARLINK-3672,PAYLOAD,2024-05-02 05:02:34,15.06392961,0.0001654,53.0535,187.7201,84.6026,275.5151,-0.00013087,-2.23e-05,0.0,0 STARLINK-3672,1 51974U 22025U   24123.21011889 -.00002230  00000-0 -13087-3 0  9990,2 51974  53.0535 187.7201 0001654  84.6026 275.5151 15.06392961120042,6925.37,95.593,548.381,546.09,0.0
51974.0,STARLINK-3672,PAYLOAD,2024-05-02 14:35:48,15.06397222,0.0001486,53.0531,185.9328,92.3305,267.7854,3.4983e-06,-2.29e-06,0.0,0 STARLINK-3672,1 51974U 22025U   24123.60820275 -.00000229  00000-0  34983-5 0  9995,2 51974  53.0531 185.9328 0001486  92.3305 267.7854 15.06397222119010,6925.357,95.592,548.251,546.193,0.0
51974.0,STARLINK-3672,PAYLOAD,2024-05-03 03:20:07,15.0643442,0.0001444,53.0526,183.5486,96.2468,263.8685,-0.00035731,-5.605e-05,0.0,0 STARLINK-3672,1 51974U 22025U   24124.13897061 -.00005605  00000-0 -35731-3 0  9995,2 51974  53.0526 183.5486 0001444  96.2468 263.8685 15.06434420120181,6925.243,95.59,548.108,546.108,0.0
51974.0,STARLINK-3672,PAYLOAD,2024-05-03 11:17:48,15.06419351,0.0001403,53.0527,182.0605,95.5726,264.5423,9.6353e-05,1.155e-05,0.0,0 STARLINK-3672,1 51974U 22025U   24124.47069595  .00001155  00000-0  96353-4 0  9997,2 51974  53.0527 182.0605 0001403  95.5726 264.5423 15.06419351119141,6925.289,95.591,548.126,546.183,0.0
51974.0,STARLINK-3672,PAYLOAD,2024-05-03 20:51:03,15.06403648,0.0001682,53.0527,180.2743,78.4605,281.6573,0.00021528,2.927e-05,0.0,0 STARLINK-3672,1 51974U 22025U   24124.86878511  .00002927  00000-0  21528-3 0  9995,2 51974  53.0527 180.2743 0001682  78.4605 281.6573 15.06403648120295,6925.337,95.592,548.367,546.038,0.0
51974.0,STARLINK-3672,PAYLOAD,2024-05-04 04:48:45,15.06389492,0.0001914,53.052,178.7835,81.5551,278.5655,7.115e-05,7.78e-06,0.0,0 STARLINK-3672,1 51974U 22025U   24125.20052852  .00000778  00000-0  71150-4 0  9995,2 51974  53.0520 178.7835 0001914  81.5551 278.5655 15.06389492120347,6925.381,95.593,548.571,545.92,0.0
